{"type": "FeatureCollection", "features": [ {"type": "Feature", "properties": {"norad_id": 30928, "name": "FENGYUN 1C DEB", "group": "fengyun-1c-debris", "lat": 60.41704124989137, "lon": 60.86474958271765, "alt_km": 878.1731593196419, "timestamp": "2025-12-13T16:48:32.989886+00:00", "meta": {"OBJECT_NAME": "FENGYUN 1C DEB", "OBJECT_ID": "1999-025AZS", "EPOCH": "2025-12-12T17:39:08.281728", "MEAN_MOTION": 13.22239071, "ECCENTRICITY": 0.04502627, "INCLINATION": 98.8831, "RA_OF_ASC_NODE": 76.032, "ARG_OF_PERICENTER": 31.8666, "MEAN_ANOMALY": 116.6901, "EPHEMERIS_TYPE": 0, "CLASSIFICATION_TYPE": "U", "NORAD_CAT_ID": 30928, "ELEMENT_SET_NO": 999, "REV_AT_EPOCH": 90348, "BSTAR": 0.0012153807, "MEAN_MOTION_DOT": 8.3e-06, "MEAN_MOTION_DDOT": 0}, "tle": {"line1": "1 30928U 99025AZS 25346.73551252  .00000830  00000+0  12154-2 0  9992", "line2": "2 30928  98.8831  76.0320 0450262  31.8666 116.6901 13.22239071903486"}}, "geometry": {"type": "Point", "coordinates": [60.86474958271765, 60.41704124989137]}}, {"type": "Feature", "properties": {"norad_id": 30930, "name": "FENGYUN 1C DEB", "group": "fengyun-1c-debris", "lat": -57.64796809847405, "lon": -177.23276787814726, "alt_km": 829.3123272166031, "timestamp": "2025-12-13T16:48:32.989897+00:00", "meta": {"OBJECT_NAME": "FENGYUN 1C DEB", "OBJECT_ID": "1999-025AZU", "EPOCH": "2025-12-12T20:28:59.799360", "MEAN_MOTION": 14.37390766, "ECCENTRICITY": 0.01097398, "INCLINATION": 98.2151, "RA_OF_ASC_NODE": 15.141, "ARG_OF_PERICENTER": 105.9888, "MEAN_ANOMALY": 71.7559, "EPHEMERIS_TYPE": 0, "CLASSIFICATION_TYPE": "U", "NORAD_CAT_ID": 30930, "ELEMENT_SET_NO": 999, "REV_AT_EPOCH": 98333, "BSTAR": 0.00052562135, "MEAN_MOTION_DOT": 1.641e-05, "MEAN_MOTION_DDOT": 0}, "tle": {"line1": "1 30930U 99025AZU 25346.85346990  .00001641  00000+0  52562-3 0  9998", "line2": "2 30930  98.2151  15.1410 0109739 105.9888  71.7559 14.37390766983339"}}, "geometry": {"type": "Point", "coordinates": [-177.23276787814726, -57.64796809847405]}}, {"type": "Feature", "properties": {"norad_id": 30931, "name": "FENGYUN 1C DEB", "group": "fengyun-1c-debris", "lat": -52.38839558301195, "lon": 57.344137407297204, "alt_km": 897.3365547229987, "timestamp": "2025-12-13T16:48:32.989907+00:00", "meta": {"OBJECT_NAME": "FENGYUN 1C DEB", "OBJECT_ID": "1999-025AZV", "EPOCH": "2025-12-12T10:18:52.413120", "MEAN_MOTION": 14.01511903, "ECCENTRICITY": 0.00932012, "INCLINATION": 99.1725, "RA_OF_ASC_NODE": 43.9614, "ARG_OF_PERICENTER": 42.3334, "MEAN_ANOMALY": 338.1565, "EPHEMERIS_TYPE": 0, "CLASSIFICATION_TYPE": "U", "NORAD_CAT_ID": 30931, "ELEMENT_SET_NO": 999, "REV_AT_EPOCH": 95921, "BSTAR": 0.00078478041, "MEAN_MOTION_DOT": 1.187e-05, "MEAN_MOTION_DDOT": 0}, "tle": {"line1": "1 30931U 99025AZV 25346.42977330  .00001187  00000+0  78478-3 0  9999", "line2": "2 30931  99.1725  43.9614 0093201  42.3334 338.1565 14.01511903959214"}}, "geometry": {"type": "Point", "coordinates": [57.344137407297204, -52.38839558301195]}}, {"type": "Feature", "properties": {"norad_id": 30932, "name": "FENGYUN 1C DEB", "group": "fengyun-1c-debris", "lat": -34.79040582592155, "lon": -73.1254935341514, "alt_km": 773.4537067372348, "timestamp": "2025-12-13T16:48:32.989916+00:00", "meta": {"OBJECT_NAME": "FENGYUN 1C DEB", "OBJECT_ID": "1999-025AZW", "EPOCH": "2025-12-11T06:04:03.291168", "MEAN_MOTION": 14.2678024, "ECCENTRICITY": 0.00584099, "INCLINATION": 98.9068, "RA_OF_ASC_NODE": 278.1292, "ARG_OF_PERICENTER": 298.3506, "MEAN_ANOMALY": 61.1791, "EPHEMERIS_TYPE": 0, "CLASSIFICATION_TYPE": "U", "NORAD_CAT_ID": 30932, "ELEMENT_SET_NO": 999, "REV_AT_EPOCH": 96373, "BSTAR": 0.005899767, "MEAN_MOTION_DOT": 0.00014536, "MEAN_MOTION_DDOT": 0}, "tle": {"line1": "1 30932U 99025AZW 25345.25281587  .00014536  00000+0  58998-2 0  9998", "line2": "2 30932  98.9068 278.1292 0058409 298.3506  61.1791 14.26780240963736"}}, "geometry": {"type": "Point", "coordinates": [-73.1254935341514, -34.79040582592155]}}, {"type": "Feature", "properties": {"norad_id": 30933, "name": "FENGYUN 1C DEB", "group": "fengyun-1c-debris", "lat": -72.69216500129671, "lon": 119.48603860901686, "alt_km": 753.4861273391589, "timestamp": "2025-12-13T16:48:32.989939+00:00", "meta": {"OBJECT_NAME": "FENGYUN 1C DEB", "OBJECT_ID": "1999-025AZX", "EPOCH": "2025-12-12T21:30:24.585696", "MEAN_MOTION": 14.3649909, "ECCENTRICITY": 0.00768676, "INCLINATION": 99.0482, "RA_OF_ASC_NODE": 329.3965, "ARG_OF_PERICENTER": 322.2947, "MEAN_ANOMALY": 96.7893, "EPHEMERIS_TYPE": 0, "CLASSIFICATION_TYPE": "U", "NORAD_CAT_ID": 30933, "ELEMENT_SET_NO": 999, "REV_AT_EPOCH": 95874, "BSTAR": 0.0074493408, "MEAN_MOTION_DOT": 0.00022638, "MEAN_MOTION_DDOT": 0}, "tle": {"line1": "1 30933U 99025AZX 25346.89611789  .00022638  00000+0  74493-2 0  9991", "line2": "2 30933  99.0482 329.3965 0076867 322.2947  96.7893 14.36499090958742"}}, "geometry": {"type": "Point", "coordinates": [119.48603860901686, -72.69216500129671]}}, {"type": "Feature", "properties": {"norad_id": 30934, "name": "FENGYUN 1C DEB", "group": "fengyun-1c-debris", "lat": -65.03563627850461, "lon": 25.226666675040423, "alt_km": 1339.1127760379331, "timestamp": "2025-12-13T16:48:32.989950+00:00", "meta": {"OBJECT_NAME": "FENGYUN 1C DEB", "OBJECT_ID": "1999-025AZY", "EPOCH": "2025-12-12T21:46:55.731072", "MEAN_MOTION": 13.46743236, "ECCENTRICITY": 0.03405891, "INCLINATION": 98.7654, "RA_OF_ASC_NODE": 223.8847, "ARG_OF_PERICENTER": 81.0822, "MEAN_ANOMALY": 282.8703, "EPHEMERIS_TYPE": 0, "CLASSIFICATION_TYPE": "U", "NORAD_CAT_ID": 30934, "ELEMENT_SET_NO": 999, "REV_AT_EPOCH": 91710, "BSTAR": 0.0025658461, "MEAN_MOTION_DOT": 2.174e-05, "MEAN_MOTION_DDOT": 0}, "tle": {"line1": "1 30934U 99025AZY 25346.90758948  .00002174  00000+0  25658-2 0  9995", "line2": "2 30934  98.7654 223.8847 0340589  81.0822 282.8703 13.46743236917101"}}, "geometry": {"type": "Point", "coordinates": [25.226666675040423, -65.03563627850461]}}, {"type": "Feature", "properties": {"norad_id": 30936, "name": "FENGYUN 1C DEB", "group": "fengyun-1c-debris", "lat": -2.0574959187670316, "lon": -161.83308066095103, "alt_km": 826.1011950196871, "timestamp": "2025-12-13T16:48:32.989960+00:00", "meta": {"OBJECT_NAME": "FENGYUN 1C DEB", "OBJECT_ID": "1999-025BAA", "EPOCH": "2025-12-13T01:05:16.253664", "MEAN_MOTION": 14.23374089, "ECCENTRICITY": 0.00459326, "INCLINATION": 98.5818, "RA_OF_ASC_NODE": 17.839, "ARG_OF_PERICENTER": 289.8469, "MEAN_ANOMALY": 137.9272, "EPHEMERIS_TYPE": 0, "CLASSIFICATION_TYPE": "U", "NORAD_CAT_ID": 30936, "ELEMENT_SET_NO": 999, "REV_AT_EPOCH": 97137, "BSTAR": 0.00072302142, "MEAN_MOTION_DOT": 1.615e-05, "MEAN_MOTION_DDOT": 0}, "tle": {"line1": "1 30936U 99025BAA 25347.04532701  .00001615  00000+0  72302-3 0  9998", "line2": "2 30936  98.5818  17.8390 0045932 289.8469 137.9272 14.23374089971378"}}, "geometry": {"type": "Point", "coordinates": [-161.83308066095103, -2.0574959187670316]}}, {"type": "Feature", "properties": {"norad_id": 30937, "name": "FENGYUN 1C DEB", "group": "fengyun-1c-debris", "lat": -78.71628402846913, "lon": 93.39568852389829, "alt_km": 954.5489984667956, "timestamp": "2025-12-13T16:48:32.989971+00:00", "meta": {"OBJECT_NAME": "FENGYUN 1C DEB", "OBJECT_ID": "1999-025BAB", "EPOCH": "2025-12-12T03:26:28.109760", "MEAN_MOTION": 13.95584056, "ECCENTRICITY": 0.00758029, "INCLINATION": 99.0888, "RA_OF_ASC_NODE": 38.5127, "ARG_OF_PERICENTER": 54.9156, "MEAN_ANOMALY": 324.1589, "EPHEMERIS_TYPE": 0, "CLASSIFICATION_TYPE": "U", "NORAD_CAT_ID": 30937, "ELEMENT_SET_NO": 999, "REV_AT_EPOCH": 95708, "BSTAR": 0.00017911742, "MEAN_MOTION_DOT": 2.06e-06, "MEAN_MOTION_DDOT": 0}, "tle": {"line1": "1 30937U 99025BAB 25346.14338090  .00000206  00000+0  17912-3 0  9995", "line2": "2 30937  99.0888  38.5127 0075802  54.9156 324.1589 13.95584056957081"}}, "geometry": {"type": "Point", "coordinates": [93.39568852389829, -78.71628402846913]}}, {"type": "Feature", "properties": {"norad_id": 30938, "name": "FENGYUN 1C DEB", "group": "fengyun-1c-debris", "lat": 79.34311548703415, "lon": -52.28621179774045, "alt_km": 825.7015194163732, "timestamp": "2025-12-13T16:48:32.989981+00:00", "meta": {"OBJECT_NAME": "FENGYUN 1C DEB", "OBJECT_ID": "1999-025BAC", "EPOCH": "2025-12-12T23:47:13.040160", "MEAN_MOTION": 14.19819851, "ECCENTRICITY": 0.00458787, "INCLINATION": 98.5908, "RA_OF_ASC_NODE": 0.4763, "ARG_OF_PERICENTER": 343.031, "MEAN_ANOMALY": 76.922, "EPHEMERIS_TYPE": 0, "CLASSIFICATION_TYPE": "U", "NORAD_CAT_ID": 30938, "ELEMENT_SET_NO": 999, "REV_AT_EPOCH": 97123, "BSTAR": 0.00052320237, "MEAN_MOTION_DOT": 1.078e-05, "MEAN_MOTION_DDOT": 0}, "tle": {"line1": "1 30938U 99025BAC 25346.99112315  .00001078  00000+0  52320-3 0  9999", "line2": "2 30938  98.5908   0.4763 0045878 343.0310  76.9220 14.19819851971235"}}, "geometry": {"type": "Point", "coordinates": [-52.28621179774045, 79.34311548703415]}}, {"type": "Feature", "properties": {"norad_id": 30940, "name": "FENGYUN 1C DEB", "group": "fengyun-1c-debris", "lat": -31.885624155155796, "lon": -6.5830192262383305, "alt_km": 845.9614908384165, "timestamp": "2025-12-13T16:48:32.989992+00:00", "meta": {"OBJECT_NAME": "FENGYUN 1C DEB", "OBJECT_ID": "1999-025BAE", "EPOCH": "2025-12-05T06:06:10.312128", "MEAN_MOTION": 14.08285934, "ECCENTRICITY": 0.00414748, "INCLINATION": 98.6226, "RA_OF_ASC_NODE": 339.9288, "ARG_OF_PERICENTER": 24.7538, "MEAN_ANOMALY": 346.6881, "EPHEMERIS_TYPE": 0, "CLASSIFICATION_TYPE": "U", "NORAD_CAT_ID": 30940, "ELEMENT_SET_NO": 999, "REV_AT_EPOCH": 96027, "BSTAR": 0.000647699, "MEAN_MOTION_DOT": 1.074e-05, "MEAN_MOTION_DDOT": 0}, "tle": {"line1": "1 30940U 99025BAE 25339.25428602  .00001074  00000+0  64770-3 0  9990", "line2": "2 30940  98.6226 339.9288 0041474  24.7538 346.6881 14.08285934960276"}}, "geometry": {"type": "Point", "coordinates": [-6.5830192262383305, -31.885624155155796]}}]}